STARLINK-2565           
1 48280U 21036E   26068.30040767  .00002784  00000+0  20571-3 0  9991
2 48280  53.0543  98.3658 0001513  91.9906 268.1256 15.06407119268041
SEDNA-1                 
1 60580U 24149DS  26068.76583836  .00008721  00000+0  60834-3 0  9998
2 60580  97.6673 149.7617 0008344 330.8481  29.2278 15.05597965 85421
